K01P47K  6.4   0.15 K1014 328.88768  166.09280  247.99848    8.73158  0.0674547  0.00390513  39.9373598  3 MPO157351    18   4 2001-2008 0.36 M-v 38h MPC        100E          2001 PK47          20080716
K01QT7O  5.9   0.15 K1014 270.88273  308.21533  143.29490    1.13554  0.0354664  0.00347683  43.1533090  4 MPO128726    15   4 2000-2007 0.36 M-v 38h MPC        1010          2001 QO297         20071111
K01QT7P  6.6   0.15 K1014  69.90042  167.09328  111.75451    1.43011  0.1208913  0.00321322  45.4822636  3 MPO157352    17   4 2001-2005 0.19 M-v 38h MPC        1010          2001 QP297         20050830
K01QT7Q  6.7   0.15 K1014  60.43012  212.73010   80.62726    4.41352  0.0894015  0.00330263  44.6576533  5 MPO 74097    13   2 2001-2002 0.17 M-v 38h MPC        0010          2001 QQ297         20021106
K01QT7R  6.4   0.15 K1014 330.22494  217.67681  148.02901    5.13333  0.0318505  0.00329854  44.6945908  3 MPO157352    18   5 2001-2007 0.24 M-v 38h MPC        1010          2001 QR297         20070507
K01QT7X  6.6   0.15 K1014 319.06500  102.04868  279.41336    0.90908  0.0315900  0.00332894  44.4220897  3 MPO157352    23   7 2000-2007 0.25 M-v 38h MPC        1010          2001 QX297         20070610
K01QT7Y  5.7   0.15 K1014  70.72532  130.08651  108.72096    1.54553  0.0836092  0.00336438  44.1095435  3 MPO157352    75   6 2001-2008 0.40 M-v 38h MPC        1010          2001 QY297         20081002
K01QT7Z  6.9   0.15 K1014  36.21203  262.86863   16.10015    1.85284  0.0686307  0.00331059  44.5860376  3 MPO157352    20   5 2000-2008 0.30 M-v 38h MPC        1010          2001 QZ297         20080801
K01QT8A  6.8   0.15 K1014 347.40245  226.99781  117.05435   23.60901  0.1932034  0.00310768  46.5063504  3 MPO141767    13   4 2000-2008 0.19 M-v 38h MPC        1010          2001 QA298         20080801
K01QT8B  7.1   0.15 K1014  34.27013    4.28525  291.56735    1.79712  0.1009749  0.00350624  42.9116495  3 MPO157352    27   5 2001-2007 0.15 M-v 38h MPC        1010          2001 QB298         20070523
K01QT8C  6.1   0.15 K1014   8.70059    3.75481  334.71199   30.50679  0.1289531  0.00310174  46.5656327  3 MPO141767    26   6 2000-2007 0.38 M-v 38h MPC        1010          2001 QC298         20071104
K01QT8D  5.7   0.15 K1014  52.27702  202.78529   70.65561    5.02349  0.0600716  0.00350577  42.9154982  3 MPO157352    37   6 2000-2008 0.26 M-v 38h MPC        1010          2001 QD298         20080731
K01QT8E  7.1   0.15 K1014 348.11815    9.65273    7.76635    3.65025  0.1604874  0.00337517  44.0155073  4 MPO128726    21   4 2001-2007 0.43 M-v 38h MPC        1010          2001 QE298         20071111
K01QT8F  5.1   0.15 K1014 142.86598   43.81868  164.15078   22.30201  0.1072795  0.00396229  39.5522930  4 MPO167556    32   5 2001-2009 0.35 M-v 38h MPC        100E          2001 QF298         20090914
K01QT8H  7.7   0.15 K1014  53.97518  171.66583  129.38450    6.70703  0.1121240  0.00395422  39.6061278  4 MPO 49927    11   3 2000-2003 0.21 M-v 38h MPC        000E          2001 QH298         20030707
K01QT8J  6.4   0.15 K1014 250.77773  287.33185  162.72968    2.14745  0.0371440  0.00333646  44.3552736  3 MPO164162    21   7 2000-2009 0.31 M-v 38h MPC        1010          2001 QJ298         20091012
K01QW2Q  6.4   0.15 K1014 299.20558  344.56345   76.44952    3.95788  0.0536213  0.00334807  44.2526710  3 MPO157352    18   5 2001-2007 0.25 M-v 38h MPC        1010          2001 QQ322         20070615
K01QW2R  8.2   0.15 K1014  56.53605  164.54267  151.58359    1.32207  0.0317181  0.00588987  30.3667875  3 MPO157352    26   6 2001-2008 0.38 M-v 38h MPC        100A          2001 QR322         20080721
K01QW2S  6.4   0.15 K1014  10.70157  359.44966  348.33369    0.24462  0.0444718  0.00334441  44.2850006  4 MPO126595    13   4 2001-2007 0.22 M-v 38h MPC        1010          2001 QS322         20071011
K01QW2W  7.8   0.15 K1014 100.37374   88.89614  124.66875    4.80045  0.0226963  0.00334698  44.2623285  4 MPO 87449    27   4 2001-2004 0.33 M-v 38h MPC        1010          2001 QW322         20041015
K01QW2X  6.0   0.15 K1014  25.70883   65.92621  254.84980   28.53555  0.3906963  0.00220326  58.4913708  3 MPO112758    40   3 2001-2006 0.61 M-v 38h MPC        0011          2001 QX322         20061224
K01RE3U  6.2   0.15 K1014 142.82321   20.29034  209.21925    6.50368  0.1465689  0.00395652  39.5907378  3 MPO157353    19   5 2001-2008 0.23 M-v 38h MPC        100E          2001 RU143         20080921
K01RE3W  6.9   0.15 K1014  19.70879  232.30659  131.35992    2.96260  0.0381022  0.00346912  43.2172174  3 MPO157353    17   5 2001-2008 0.25 M-v 38h MPC        1010          2001 RW143         20080920
K01RE3X  6.5   0.15 K1014  89.88241  240.87731   20.55289   19.21113  0.2962815  0.00396781  39.5155902  4 MPO157353    23   4 2001-2006 0.38 M-v 38h MPC        100E          2001 RX143         20060924
K01RE3Z  6.4   0.15 K1014 352.00081   30.87777    8.26617    2.11777  0.0671444  0.00335009  44.2348991  4 MPO157353    20   4 2001-2005 0.35 M-v 38h MPC        1010          2001 RZ143         20050929
K01ST1E  7.2   0.15 K1014 351.35900  284.73856  106.64724    1.58394  0.1361846  0.00319681  45.6378327  7 MPO 56313     9   2 2001-2003 0.29 M-v 38h MPC        0010          2001 SE291         20031120
K01U18N  6.6   0.15 K1014 132.40352  226.73680   22.96586    3.59976  0.0729988  0.00332825  44.4281682  4 MPO 97489     9   4 2001-2005 0.10 M-v 38h MPC        1010          2001 UN18          20051027
K01U18P  5.9   0.15 K1014 136.59743  139.64045  105.03561    1.17210  0.0734671  0.00296923  47.9409329  4 MPO157356    17   5 2001-2006 0.45 M-v 38h MPC        1010          2001 UP18          20060831
K01V71N  9.1   0.15 K1014   3.56866    0.88653   70.43347   18.66331  0.2468557  0.00397486  39.4688718  3 MPO 97505    16   3 2001-2005 0.19 M-v 38h MPC        000E          2001 VN71          20051223
K01XP4P  7.6   0.15 K1014 353.50934  180.99830  304.90763    2.61298  0.2148215  0.00361083  42.0789148  3 MPO157360    19   4 2001-2008 0.23 M-v 38h MPC        100F          2001 XP254         20081111
K01XP4Q  7.5   0.15 K1014   0.84187   10.25452  107.21892    7.11634  0.4366501  0.00240780  55.1302108  2 MPO150915    14   4 2001-2008 0.33 M-v 38h MPC        1011          2001 XQ254         20081130
K01XP4R  5.7   0.15 K1014 211.08364   81.75492  179.68871    1.23432  0.0341970  0.00351449  42.8444695  4 MPO157360    48   6 2001-2009 0.39 M-v 38h MPC        1010          2001 XR254         20090226
K01XP4U  6.7   0.15 K1014 295.35920   74.68158  114.73559    6.52037  0.0757300  0.00345968  43.2957525  3 MPO170041    19   5 2001-2009 0.31 M-v 38h MPC        1010          2001 XU254         20090226
K01XP4X  7.5   0.15 K1014 283.34793  109.41896   85.64312    1.74875  0.0144799  0.00342008  43.6293244  6 MPO 37744     9   2 2001-2002 0.17 M-v 38h MPC        0010          2001 XX254         20021103
K01XP5D  5.5   0.15 K1014 271.01111  111.64756  106.69110   18.12686  0.1091289  0.00400120  39.2954640  3 MPO167567    12   4 2001-2009 0.17 M-v 38h MPC        100E          2001 XD255         20091023
K01XP5Z 11.1   0.15 K1014 144.00280  282.69805   77.80722    2.60926  0.0362745  0.01554273  15.9019785  3 MPO 48174    13   2 2001-2003 0.19 M-v 38h MPC        000A          2001 XZ255         20030303
K02CF4S  7.2   0.15 K1014 303.66848  144.89020   86.84996    1.17746  0.0469646  0.00349753  42.9828443  5 MPO 62387    10   3 2002-2004 0.24 M-v 38h MPC        0010          2002 CS154         20040222
K02CF4T  7.2   0.15 K1014  25.20669  345.10409  159.50708    3.54358  0.1087822  0.00309784  46.6047708  5 MPO 61219    16   3 2001-2003 0.28 M-v 38h MPC        0010          2002 CT154         20030330
K02CF4U  7.1   0.15 K1014   0.07916   38.08069  108.93820    3.35431  0.0552443  0.00342852  43.5576596  4 MPO157362    17   4 2002-2008 0.33 M-v 38h MPC        1010          2002 CU154         20081027
K02CF4Y  6.5   0.15 K1014 187.93029  225.77784  120.78182    0.97492  0.0791579  0.00336266  44.1245956  6 MPO 47181    10   2 2002-2003 0.21 M-v 38h MPC        0010          2002 CY154         20030501
K02CF4Z  7.4   0.15 K1014 358.47452   26.62110  152.97215   10.09373  0.0564228  0.00346019  43.2914953  6 MPO 61219    11   2 2002-2004 0.18 M-v 38h MPC        0010          2002 CZ154         20040316
K02CM4W  6.9   0.15 K1014 297.73581  155.20810    1.62942    5.66237  0.2407700  0.00399821  39.3150697  3 MPO157362    15   4 2001-2008 0.26 M-v 38h MPC        100E          2002 CW224         20081118
K02CM4X  6.0   0.15 K1014 261.88899  134.57912   42.24180   16.84589  0.1314850  0.00313920  46.1944787  4 MPO157362    24   4 2001-2006 0.22 M-v 38h MPC        1010          2002 CX224         20060730
K02CM4Z  6.6   0.15 K1014 171.59637  263.77899   66.44386    1.68693  0.0657524  0.00328330  44.8327660  5 MPO157362    16   3 2002-2006 0.18 M-v 38h MPC        0010          2002 CZ224         20060111
K02CM5B  6.8   0.15 K1014 315.99704  118.37501  100.55196    3.78353  0.0780115  0.00339142  43.8747782  3 MPO157362    19   4 2002-2008 0.22 M-v 38h MPC        1010          2002 CB225         20081128
K02CO8Y  5.0   0.15 K1014 221.63144  338.80902  300.73303    7.05697  0.1491265  0.00315652  46.0253477  4 MPO157362    26   6 2002-2009 0.31 M-v 38h MPC        1010          2002 CY248         20090325
K02CP1D  7.3   0.15 K1014 113.58007  354.17497   48.60538    1.43020  0.0122776  0.00356928  42.4048953  4 MPO 77586    15   4 2002-2005 0.29 M-v 38h MPC        0010          2002 CD251         20050311
K02CP1E  8.4   0.15 K1014 351.09601  215.61879  342.58558    9.31201  0.2656378  0.00401389  39.2126126  4 MPO 62388    12   3 2002-2004 0.31 M-v 38h MPC        000E          2002 CE251         20040320
K02D05H 10.1   0.15 K1014  40.42920  327.35979  157.04486   22.49540  0.3647721  0.00956421  21.9804561  2 MPO118000    44   4 2002-2007 0.47 M-v 38h MPC        100A          2002 DH5           20070318
